[
    {
        "Altitude(m)": 607910.9896303272,
        "Argument of Periapsis(deg)": 0.0,
        "Eccentricity": 0.0,
        "Inclination(deg)": 60.0,
        "Latitude(deg)": -14.292834803048121,
        "Longitude(deg)": 73.44266256111337,
        "Mean Anomaly(deg)": -163.6364,
        "RAAN(deg)": 345.0,
        "Satellite Name": "Test1 1530",
        "Satellite Number": 1530,
        "Semi-Major Axis(m)": 6980739.136638005,
        "Time(s)": 0
    },
    {
        "Altitude(m)": 608060.2225091846,
        "Argument of Periapsis(deg)": 0.00010418945913296404,
        "Eccentricity": 0.0,
        "Inclination(deg)": 60.0,
        "Latitude(deg)": -14.826495911612184,
        "Longitude(deg)": 73.7312724437671,
        "Mean Anomaly(deg)": -163.01629385453816,
        "RAAN(deg)": 344.99957995086027,
        "Satellite Name": "Test1 1530",
        "Satellite Number": 1530,
        "Semi-Major Axis(m)": 6980739.136638005,
        "Time(s)": 10
    }
]